{
    "links": {
        "self": "http://www.neowsapp.com/rest/v1/neo/3843480?api_key=iIulBulltgU6a56xZRHN4H3l9WmuAYTsLGpBGhQ2"
    },
    "id": "3843480",
    "neo_reference_id": "3843480",
    "name": "(2019 PM)",
    "designation": "2019 PM",
    "nasa_jpl_url": "http://ssd.jpl.nasa.gov/sbdb.cgi?sstr=3843480",
    "absolute_magnitude_h": 23.5,
    "estimated_diameter": {
        "kilometers": {
            "estimated_diameter_min": 0.0530340723,
            "estimated_diameter_max": 0.1185877909
        },
        "meters": {
            "estimated_diameter_min": 53.0340723319,
            "estimated_diameter_max": 118.5877908577
        },
        "miles": {
            "estimated_diameter_min": 0.0329538346,
            "estimated_diameter_max": 0.0736870142
        },
        "feet": {
            "estimated_diameter_min": 173.9963058693,
            "estimated_diameter_max": 389.0675677576
        }
    },
    "is_potentially_hazardous_asteroid": false,
    "close_approach_data": [
        {
            "close_approach_date": "1924-07-05",
            "close_approach_date_full": "1924-Jul-05 21:23",
            "epoch_date_close_approach": -1435545420000,
            "relative_velocity": {
                "kilometers_per_second": "18.5382699566",
                "kilometers_per_hour": "66737.7718438234",
                "miles_per_hour": "41468.2560659579"
            },
            "miss_distance": {
                "astronomical": "0.2987954778",
                "lunar": "116.2314408642",
                "kilometers": "44699167.044512286",
                "miles": "27774774.4680541068"
            },
            "orbiting_body": "Earth"
        },
        {
            "close_approach_date": "2005-06-25",
            "close_approach_date_full": "2005-Jun-25 07:48",
            "epoch_date_close_approach": 1119685680000,
            "relative_velocity": {
                "kilometers_per_second": "23.1052527134",
                "kilometers_per_hour": "83178.9097682756",
                "miles_per_hour": "51684.1397946266"
            },
            "miss_distance": {
                "astronomical": "0.4752450966",
                "lunar": "184.8703425774",
                "kilometers": "71095654.179304242",
                "miles": "44176791.0020008596"
            },
            "orbiting_body": "Earth"
        },
        {
            "close_approach_date": "2012-07-13",
            "close_approach_date_full": "2012-Jul-13 20:49",
            "epoch_date_close_approach": 1342212540000,
            "relative_velocity": {
                "kilometers_per_second": "16.1437863605",
                "kilometers_per_hour": "58117.6308979775",
                "miles_per_hour": "36112.0357099127"
            },
            "miss_distance": {
                "astronomical": "0.1944962502",
                "lunar": "75.6590413278",
                "kilometers": "29096224.752907074",
                "miles": "18079555.7013186612"
            },
            "orbiting_body": "Earth"
        },
        {
            "close_approach_date": "2019-08-01",
            "close_approach_date_full": "2019-Aug-01 18:35",
            "epoch_date_close_approach": 1564684500000,
            "relative_velocity": {
                "kilometers_per_second": "12.7293571724",
                "kilometers_per_hour": "45825.6858204614",
                "miles_per_hour": "28474.2990588306"
            },
            "miss_distance": {
                "astronomical": "0.0202721315",
                "lunar": "7.8858591535",
                "kilometers": "3032667.692759905",
                "miles": "1884412.322920489"
            },
            "orbiting_body": "Earth"
        }
    ],
    "orbital_data": {
        "orbit_id": "4",
        "orbit_determination_date": "2020-01-23 10:53:20",
        "first_observation_date": "2019-08-05",
        "last_observation_date": "2019-10-31",
        "data_arc_in_days": 87,
        "observations_used": 53,
        "orbit_uncertainty": "6",
        "minimum_orbit_intersection": ".0196873",
        "jupiter_tisserand_invariant": "3.300",
        "epoch_osculation": "2459000.5",
        "eccentricity": ".5641740875876177",
        "semi_major_axis": "2.314265347321819",
        "inclination": "17.28351306528105",
        "ascending_node_longitude": "306.8747976671524",
        "orbital_period": "1285.932449672546",
        "perihelion_distance": "1.00861680656089",
        "perihelion_argument": "22.18945727123307",
        "aphelion_distance": "3.619913888082746",
        "perihelion_time": "2458714.266742354705",
        "mean_anomaly": "80.13171514455964",
        "mean_motion": ".2799524967984684",
        "equinox": "J2000",
        "orbit_class": {
            "orbit_class_type": "APO",
            "orbit_class_description": "Near-Earth asteroid orbits which cross the Earth’s orbit similar to that of 1862 Apollo",
            "orbit_class_range": "a (semi-major axis) > 1.0 AU; q (perihelion) < 1.017 AU"
        }
    },
    "is_sentry_object": false
}